[{"OBJECT_NAME":"PE2_FLT1 (TYVAK-0261)","OBJECT_ID":"2024-043H","EPOCH":"2026-03-09T22:11:30.005376","MEAN_MOTION":14.96611647,"ECCENTRICITY":0.00060821,"INCLINATION":97.8224,"RA_OF_ASC_NODE":199.4267,"ARG_OF_PERICENTER":22.6188,"MEAN_ANOMALY":337.53,"EPHEMERIS_TYPE":0,"CLASSIFICATION_TYPE":"U","NORAD_CAT_ID":59105,"ELEMENT_SET_NO":999,"REV_AT_EPOCH":10980,"BSTAR":0.00036312112,"MEAN_MOTION_DOT":4.08e-5,"MEAN_MOTION_DDOT":0},{"OBJECT_NAME":"FENGYUN 1C DEB","OBJECT_ID":"1999-025DJ","EPOCH":"2026-03-09T15:12:33.799392","MEAN_MOTION":14.45278432,"ECCENTRICITY":0.0234382,"INCLINATION":98.9861,"RA_OF_ASC_NODE":298.7424,"ARG_OF_PERICENTER":278.6262,"MEAN_ANOMALY":154.9481,"EPHEMERIS_TYPE":0,"CLASSIFICATION_TYPE":"U","NORAD_CAT_ID":29816,"ELEMENT_SET_NO":999,"REV_AT_EPOCH":99442,"BSTAR":0.0011276,"MEAN_MOTION_DOT":5.496e-5,"MEAN_MOTION_DDOT":0}]
